#aV2009 12 15  0  0   .00000000      96 DD+AD WGS84 FIT  NGA
## 1562 172800.00000000   900.00000000 55180  .0000000000000
+   32     1  2  3  4  5  6  7  8  9 10 11 12 13 14 15 16 17
+         18 19 20 21 22 23 24 25 26 27 28 29 30 31 32  0  0
+          0  0  0  0  0  0  0  0  0  0  0  0  0  0  0  0  0
+          0  0  0  0  0  0  0  0  0  0  0  0  0  0  0  0  0
+          0  0  0  0  0  0  0  0  0  0  0  0  0  0  0  0  0
++         0  0  0  0  0  0  0  0  0  0  0  0  0  0  0  0  0
++         0  0  0  0  0  0  0  0  0  0  0  0  0  0  0  0  0
++         0  0  0  0  0  0  0  0  0  0  0  0  0  0  0  0  0
++         0  0  0  0  0  0  0  0  0  0  0  0  0  0  0  0  0
++         0  0  0  0  0  0  0  0  0  0  0  0  0  0  0  0  0
%c cc cc ccc ccc cccc cccc cccc cccc ccccc ccccc ccccc ccccc
%c cc cc ccc ccc cccc cccc cccc cccc ccccc ccccc ccccc ccccc
%f  0.0000000  0.000000000  0.00000000000  0.000000000000000
%f  0.0000000  0.000000000  0.00000000000  0.000000000000000
%i    0    0    0    0      0      0      0      0         0
%i    0    0    0    0      0      0      0      0         0
/*      NGA, ST. LOUIS,MO.                                  
/*   EPHEMERIS COMPUTED FROM  3 DAYS OF DATA                
/* CCCCCCCCCCCCCCCCCCCCCCCCCCCCCCCCCCCCCCCCCCCCCCCCCCCCCCCCC
/* CCCCCCCCCCCCCCCCCCCCCCCCCCCCCCCCCCCCCCCCCCCCCCCCCCCCCCCCC
*  2009 12 15 22 15   .00000000                                                 
P  1 -14870.066117 -18831.638205 -11603.950951    -71.656036                    
V  1  13499.551370   5836.249466 -26900.788612      -.027509                    
P  2  22712.942417 -13249.221391   1144.836515    204.005485                    
V  2   3198.023035   2644.439400 -31528.457931       .045790                    
P  3 -11130.544127  17073.381827  16499.840321    488.473394                    
V  3  -4382.198439 -21588.963343  19329.160269       .052448                    
P  4  24423.816045  -4283.929126 -10168.817649   -408.719418                    
V  4  -9915.023787   8245.395783 -27364.498020      -.187118                    
P  5  13904.885922  -8547.657064  20952.945752    -28.418314                    
V  5  22143.548157  14799.761778  -8570.673145       .052444                    
P  6 -13629.994753  13444.614512  18545.088139    263.528305                    
V  6  -2016.070835 -23302.204201  15665.312681      -.002080                    
P  7   8966.097058  12198.230469  21823.565514      5.929783                    
V  7 -24495.785790  12916.082140   2691.802261      -.006428                    
P  8  19938.851555   3667.573053  17414.634998       .939621                    
V  8 -19685.483620   9607.894739  19977.075784       .004947                    
P  9   9584.883428 -18547.659231 -17049.023965     94.226745                    
V  9  18394.487372  -8860.159245  20842.185038       .022199                    
P 10  17974.593043  -4179.371852  19052.731975    -30.430890                    
V 10  19639.914870  14633.548811 -14842.411294      -.008051                    
P 11  -3706.297821  20636.463745 -16353.161247    -34.452667                    
V 11 -17880.245952  10984.301969  18561.426854      -.019927                    
P 12  -2126.533644 -17548.587139 -19810.522047   -176.083095                    
V 12  21739.708403  12803.048458 -13508.109512       .051278                    
P 13   6209.718812  22185.812258  13077.278568    306.575939                    
V 13  -3231.653041  16516.839790 -26247.274639       .000533                    
P 14 -13703.690125  -6897.584539 -21559.615925    -11.748642                    
V 14   2724.731996 -27480.317387   6895.544541       .046498                    
P 15   7920.765581 -23106.031523  10344.506881   -317.804184                    
V 15   2367.482038  13201.303066  27843.270686       .012974                    
P 16 -19482.633084   1871.091556  18118.019599    -19.802386                    
V 16 -18232.345022 -13732.555461 -17988.905349      -.041815                    
P 17  14629.853927   5795.506453 -21347.328784    112.207605                    
V 17  -2125.109133  27178.992011   5698.630169       .035128                    
P 18 -18871.006418 -18039.993444   6117.599122     34.944452                    
V 18   7800.034255   1636.188293  29770.892665       .026829                    
P 19  -8758.326587  23462.082697   8443.564881     -4.129117                    
V 19  -1643.002722 -11028.500811  29340.206046      -.020668                    
P 20   6827.961144  18936.210081 -17485.673919     65.388173                    
V 20 -19903.294426  -9565.383472 -18209.255644      -.008055                    
P 21 -14506.082631  -9683.311564  20469.939135    -27.763321                    
V 21  22234.739571 -12095.794270   9553.278017      -.023839                    
P 22 -23518.390107 -11040.490865  -5542.896137    183.929422                    
V 22  -4096.676237  -6879.855871  30119.240896      -.007059                    
P 23    -79.710032  26335.446032   1750.969374    384.332495                    
V 23  -2918.159520   2133.915343 -32032.925967      -.006867                    
P 24   1976.866703 -17022.542083  20458.268088    245.311578                    
V 24  23747.106279  -9910.011969 -10349.142674       .033400                    
P 25   2648.574319  15809.870263  21555.586243     54.376129                    
V 25 -22491.051220  14007.611172  -7447.613556       .113322                    
P 26 -10937.211561 -15361.453505 -19040.812357     -2.515715                    
V 26   3457.066783 -22922.045597  17448.957391      -.025128                    
P 27  13411.896295 -18273.211920 -13092.266142    108.694972                    
V 27  16352.838978  -7283.492252  25647.468279       .033114                    
P 28  22941.150329  13334.935909  -2762.893768    -24.677025                    
V 28   2024.473637   4184.567075  31477.843984       .003112                    
P 29  -5175.378603 -24196.175173   9794.921589     82.445557                    
V 29   3355.966585 -12095.225273 -28321.356132       .030231                    
P 30 -13241.407718 -18813.817277 -13706.587539    201.904353                    
V 30  15627.165259   6449.587543 -24589.381699       .033180                    
P 31 -24456.373139   6682.342430  -7952.484559    -58.529393                    
V 31   8181.188807  -6671.193952 -29801.386697       .010823                    
P 32  -2539.426467  16149.825495 -20625.202896    137.326453                    
V 32 -21901.247173 -15754.172128  -9166.912604      -.077959                    
EOF
